TDRS 11                 
1 39070U 13004A   26062.16430969  .00000067  00000+0  00000+0 0  9992
2 39070   3.3655  29.3283 0003922 349.9644  26.4206  1.00276128 45630
TDRS 12                 
1 39504U 14004A   26062.18094190 -.00000283  00000+0  00000+0 0  9990
2 39504   3.8746  17.2180 0003976 267.0874 260.8909  1.00270499 43215
GPM-CORE                
1 39574U 14009C   26062.17101468  .00015098  00000+0  32681-3 0  9991
2 39574  64.9740 303.3220 0012448 264.2970  95.6751 15.44582903681438
MMS 1                   
1 40482U 15011A   26062.25001156 -.00002043  00000+0  00000+0 0  9990
2 40482  70.7146 350.2382 8416523 165.1307 293.1842  0.28212530  1339
MMS 2                   
1 40483U 15011B   26062.25001156 -.00002043  00000+0  00000+0 0  9991
2 40483  70.7148 350.2403 8417251 165.1368 293.1676  0.28212557  1336
MMS 3                   
1 40484U 15011C   26062.25001156 -.00002043  00000+0  00000+0 0  9992
2 40484  70.7172 350.2450 8416538 165.1309 293.1764  0.28212523  1339
MMS 4                   
1 40485U 15011D   26062.25001156 -.00002044  00000+0  00000+0 0  9994
2 40485  70.7152 350.2407 8416127 165.1294 293.1929  0.28199666  1332
TDRS 13                 
1 42915U 17047A   26062.05808873 -.00000113  00000+0  00000+0 0  9999
2 42915   3.4295   0.0304 0010083  99.5027  70.7268  1.00272055 31283
NOAA 20 (JPSS-1)        
1 43013U 17073A   26062.13229778  .00000081  00000+0  59529-4 0  9996
2 43013  98.7685   2.5849 0000900 145.6534 214.4700 14.19533980429423
